{
    "links": {
        "self": "http://www.neowsapp.com/rest/v1/neo/3694125?api_key=iIulBulltgU6a56xZRHN4H3l9WmuAYTsLGpBGhQ2"
    },
    "id": "3694125",
    "neo_reference_id": "3694125",
    "name": "(2014 UR34)",
    "designation": "2014 UR34",
    "nasa_jpl_url": "http://ssd.jpl.nasa.gov/sbdb.cgi?sstr=3694125",
    "absolute_magnitude_h": 24.9,
    "estimated_diameter": {
        "kilometers": {
            "estimated_diameter_min": 0.0278326768,
            "estimated_diameter_max": 0.0622357573
        },
        "meters": {
            "estimated_diameter_min": 27.8326768072,
            "estimated_diameter_max": 62.2357573367
        },
        "miles": {
            "estimated_diameter_min": 0.0172944182,
            "estimated_diameter_max": 0.0386714948
        },
        "feet": {
            "estimated_diameter_min": 91.3145593761,
            "estimated_diameter_max": 204.1855621004
        }
    },
    "is_potentially_hazardous_asteroid": false,
    "close_approach_data": [
        {
            "close_approach_date": "2014-10-22",
            "close_approach_date_full": "2014-Oct-22 02:00",
            "epoch_date_close_approach": 1413943200000,
            "relative_velocity": {
                "kilometers_per_second": "12.2194687449",
                "kilometers_per_hour": "43990.0874814899",
                "miles_per_hour": "27333.7296353735"
            },
            "miss_distance": {
                "astronomical": "0.021040112",
                "lunar": "8.184603568",
                "kilometers": "3147555.93976144",
                "miles": "1955800.569290272"
            },
            "orbiting_body": "Earth"
        }
    ],
    "orbital_data": {
        "orbit_id": "4",
        "orbit_determination_date": "2017-04-06 08:38:00",
        "first_observation_date": "2014-10-23",
        "last_observation_date": "2014-10-26",
        "data_arc_in_days": 3,
        "observations_used": 30,
        "orbit_uncertainty": "8",
        "minimum_orbit_intersection": ".0200928",
        "jupiter_tisserand_invariant": "3.154",
        "epoch_osculation": "2456955.5",
        "eccentricity": ".5929766589484414",
        "semi_major_axis": "2.493993521539192",
        "inclination": "16.77856903202532",
        "ascending_node_longitude": "207.5397786985755",
        "orbital_period": "1438.604479895368",
        "perihelion_distance": "1.015113575697824",
        "perihelion_argument": "183.1968740940846",
        "aphelion_distance": "3.972873467380559",
        "perihelion_time": "2456954.744670314380",
        "mean_anomaly": ".1890155985354481",
        "mean_motion": ".2502425128178271",
        "equinox": "J2000",
        "orbit_class": {
            "orbit_class_type": "APO",
            "orbit_class_description": "Near-Earth asteroid orbits which cross the Earth’s orbit similar to that of 1862 Apollo",
            "orbit_class_range": "a (semi-major axis) > 1.0 AU; q (perihelion) < 1.017 AU"
        }
    },
    "is_sentry_object": false
}